# 2010 08 04 13 27 26.41 43.5866666666667 -110.436666666667   4.4 0.00  9.7  2.7 0.08 1
LOHW 3.420 0.75 P
REDW 8.170 0.75 P
IMW 9.740 0.75 P
FLWY 10.90 1 P
YPP 14.73 1 P
B944 16.07 0.75 P
MCID 15.99 0.75 P
YTP 16.05 1 P
YLT 16.89 0.5 P
# 2010 08 04 22 34 21.22 43.5896666666667 -110.421666666667  -1.3 0.00  5.3  2.6 0.12 2
LOHW 3.990 0.75 P
REDW 9.130 1 P
IMW 10.63 1 P
FLWY 11.79 1 P
YPP 15.68 0.75 P
YTP 16.68 0.5 P
MCID 17.01 0.5 P
ECR 18.09 0.5 P
# 2010 08 04 23 44 24.39 43.5896666666667 -110.44  -0.9 0.00  4.4  2.8 0.16 3
LOHW 3.640 1 P
REDW 8.969 1 P
IMW 10.26 0.5 P
FLWY 11.63 0.75 P
YPP 15.36 0.75 P
MCID 16.83 0.5 P
YTP 16.58 0.5 P
YLT 17.88 0.5 P
ECR 17.72 0.75 P
# 2010 08 05 00 12  9.12 43.5725 -110.403333333333  10.3 0.00 18.1  8.3 0.13 4
LOHW 4.119 1 P
REDW 8.410 1 P
IMW 10.21 1 P
FLWY 11.34 1 P
YPP 14.77 0.5 P
YTP 16.22 0.25 P
MCID 16.41 0.5 P
ECR 17 0.5 P
# 2010 08 06 18 48 58.64 43.601 -110.545   6.7 0.00  3.3 11.3 0.11 5
LOHW 2.280 0.75 P
REDW 7.25 0.75 P
IMW 8.489 1 P
FLWY 10.04 0.75 P
YPP 14.01 0.75 P
MCID 14.89 0.75 P
# 2010 08 05 00 34 54.85 43.6021666666667 -110.601666666667   3.8 0.00  3.5 18.9 0.10 6
LOHW 1.530 0.75 P
REDW 6.890 0.5 P
IMW 8.100 0.75 P
YPP 13.83 0.5 P
MCID 14.59 0.5 P
# 2010 08 05 01 19 45.71 43.5891666666667 -110.488333333333   6.6 0.00  8.5 13.3 0.08 7
LOHW 2.849 0.75 P
REDW 7.619 0.75 P
IMW 9.179 0.5 P
FLWY 10.46 0.75 P
YPP 14.44 0.75 P
MCID 15.46 0.5 P
# 2010 08 05 01 21 23.66 43.5986666666667 -110.423333333333   1.5 0.00  7.6  2.2 0.11 8
LOHW 3.680 0.75 P
REDW 8.75 0.75 P
IMW 10.01 1 P
FLWY 11 1 P
YPP 14.87 1 P
YTP 16.02 1 P
MCID 16.30 0.75 P
YLT 17.19 0.75 P
ECR 17.52 0.5 P
# 2010 08 05 01 47  0.44 43.5938333333333 -110.481666666667   6.7 0.00  8.8 13.4 0.21 9
LOHW 2.929 0.75 P
REDW 7.739 0.75 P
IMW 9.119 0.75 P
FLWY 10.20 0.75 P
YPP 14.58 0.75 P
MCID 15.55 0.5 P
# 2010 08 05 02 13 18.00 43.5915 -110.551666666667   7.9 0.00  3.4 12.5 0.04 10
LOHW 2.409 1 P
REDW 7.080 0.75 P
IMW 8.75 1 P
FLWY 10.23 0.75 P
YPP 14.09 0.5 P
MCID 14.70 0.75 P
# 2010 08 05 02 52 40.02 43.582 -110.426666666667   2.3 0.00 10.6  5.4 0.14 11
LOHW 3.649 0.75 P
REDW 8.459 1 P
IMW 10.04 1 P
FLWY 11.27 0.75 P
YPP 15.15 0.75 P
B944 15.97 0.5 P
MCID 16.39 0.5 P
YLT 17.38 0.25 P
ECR 17.13 0.5 P
# 2010 08 09 06 12 19.15 43.595 -110.441666666667   4.2 0.00 10.1 10.7 0.13 12
LOHW 3.309 0.75 P
REDW 8.25 1 P
IMW 9.579 1 P
FLWY 10.66 1 P
MCID 15.98 1 P
ECR 17.02 1 P
# 2010 08 05 04 16  1.74 43.5825 -110.406666666667  -2.8 0.00  4.4  2.1 0.09 13
LOHW 4.380 0.75 P
REDW 9.609 1 P
FLWY 12.14 1 P
YPP 15.98 0.75 P
B944 17.23 0.75 P
YTP 17.15 0.75 P
MCID 17.32 0.75 P
YLT 18.15 0.75 P
ECR 18.35 0.75 P
YFT 19.45 0.75 P
# 2010 08 05 04 20 16.07 43.5748333333333 -110.443333333333   5.0 0.00  8.2  2.6 0.13 14
LOHW 3.419 1 P
REDW 7.969 1 P
IMW 9.760 1 P
FLWY 11.02 1 P
YPP 14.85 0.75 P
MCID 16.15 0.75 P
B944 16.41 0.75 P
YTP 16.19 0.75 P
ECR 16.69 0.5 P
YLT 17.05 0.75 P
YFT 17.83 0.5 P
# 2010 08 05 04 49 40.32 43.6081666666667 -110.495   5.3 0.00  4.5 10.2 0.19 15
LOHW 2.690 0.75 P
REDW 7.489 0.75 P
IMW 9.059 0.75 P
FLWY 10.27 0.75 P
YPP 14.15 0.75 P
MCID 14.88 0.75 P
ECR 16.92 0.75 P
# 2010 08 05 04 53 34.87 43.5796666666667 -110.443333333333   3.0 0.00  8.2  4.8 0.13 16
LOHW 3.410 1 P
REDW 8.049 0.75 P
IMW 9.799 1 P
FLWY 11.08 0.75 P
YPP 14.97 0.75 P
MCID 16.27 0.75 P
B944 16.10 0.5 P
ECR 17.05 0.75 P
# 2010 08 05 05 12 57.80 43.5986666666667 -110.535   6.5 0.00  2.0  2.5 0.26 17
LOHW 2.369 1 P
REDW 6.960 0.75 P
IMW 8.730 0.75 P
FLWY 10.02 0.75 P
YPP 13.89 0.75 P
MCID 15.11 0.75 P
B944 15.20 0.75 P
YTP 16.45 0.75 P
ECR 16.41 0.75 P
YLT 16.63 0.5 P
# 2010 08 08 01 54 26.45 43.6056666666667 -110.458333333333   6.4 0.00  8.3  6.6 0.07 18
LOHW 3.110 1 P
REDW 8.140 0.75 P
IMW 9.310 1 P
FLWY 10.40 0.75 P
YPP 14.18 0.75 P
MCID 15.48 0.75 P
B944 15.68 0.25 P
YLT 16.43 0.5 P
ECR 16.85 0.5 P
# 2010 08 05 04 22 21.41 43.563 -110.433333333333   6.0 0.00 11.3  2.6 0.16 19
LOHW 3.570 1 P
REDW 8.150 1 P
IMW 9.930 1 P
FLWY 11.20 1 P
YPP 15.03 1 P
MCID 16.33 0.75 P
B944 16.33 0.5 P
YTP 16.35 0.75 P
ECR 16.47 0.75 P
YLT 17.41 0.75 P
YFT 18.40 0.75 P
# 2010 08 07 14 36 13.55 43.6081666666667 -110.461666666667   8.1 0.00  9.7 10.0 0.16 20
LOHW 3.179 0.75 P
REDW 8.159 0.75 P
IMW 9.25 1 P
FLWY 10.03 0.5 P
YPP 14.11 0.5 P
MCID 15.55 0.5 P
YLT 16.69 0.25 P
ECR 16.75 0.5 P
# 2010 08 07 15 31 59.75 43.5866666666667 -110.436666666667   2.9 0.00  7.6  2.9 0.13 21
LOHW 3.459 0.75 P
REDW 8.219 0.75 P
IMW 9.770 0.75 P
FLWY 11.07 0.75 P
YPP 14.81 0.75 P
B944 15.97 0.5 P
MCID 16.20 0.75 P
YTP 16.16 0.5 P
YLT 17.13 0.5 P
ECR 17.26 0.5 P
# 2010 08 05 15 14  7.10 43.604 -110.438333333333   1.4 0.00  5.0  2.2 0.17 22
LOHW 3.450 0.75 P
REDW 8.490 0.75 P
IMW 9.770 1 P
FLWY 10.88 1 P
YPP 14.70 0.75 P
B944 16.21 0.75 P
MCID 16.09 1 P
YTP 15.89 0.75 P
YLT 17.19 0.75 P
ECR 17.68 0.75 P
# 2010 08 06 05 33 14.06 43.5961666666667 -110.433333333333   4.9 0.00  8.7  3.2 0.14 23
LOHW 3.439 0.75 P
REDW 8.319 1 P
IMW 9.609 1 P
FLWY 10.64 1 P
YPP 14.47 1 P
B944 15.92 0.75 P
YTP 15.69 0.5 P
MCID 15.96 0.5 P
ECR 17.09 0.75 P
YFT 17.98 0.5 P
# 2010 08 05 15 24 56.39 43.6033333333333 -110.453333333333   4.8 0.00 11.1 10.9 0.13 24
LOHW 3.149 0.75 P
REDW 8.149 0.5 P
IMW 9.349 1 P
FLWY 10.44 0.75 P
YPP 14.39 0.5 P
MCID 15.70 1 P
# 2010 08 05 15 30 26.74 43.6056666666667 -110.485   4.3 0.00  7.4  8.6 0.09 25
LOHW 2.679 0.75 P
REDW 7.929 0.5 P
IMW 9.119 1 P
FLWY 10.36 0.5 P
YPP 14.17 0.75 P
MCID 15.54 0.25 P
B944 15.55 0.25 P
# 2010 08 05 15 42 55.75 43.6105 -110.531666666667   4.9 0.00  3.0  6.2 0.16 26
LOHW 2.130 0.75 P
REDW 7.520 0.75 P
IMW 8.619 1 P
FLWY 9.909 0.5 P
YPP 13.72 0.75 P
MCID 15.05 0.5 P
B944 15.69 0.5 P
# 2010 08 05 15 48 32.33 43.6211666666667 -110.483333333333   3.2 0.00  6.0  8.5 0.14 27
LOHW 2.679 0.75 P
REDW 8.209 0.5 P
IMW 8.950 1 P
FLWY 10.15 0.75 P
YPP 13.98 0.5 P
MCID 15.36 1 P
# 2010 08 05 15 46 43.30 43.6056666666667 -110.465   2.9 0.00  6.8  4.8 0.11 28
LOHW 2.940 0.75 P
REDW 8.230 0.75 P
IMW 9.369 1 P
FLWY 10.48 0.75 P
YPP 14.35 0.75 P
MCID 15.76 0.75 P
B944 15.77 0.75 P
# 2010 08 06 17 47  8.66 43.5926666666667 -110.47   5.0 0.00  8.5 10.7 0.12 29
LOHW 2.969 1 P
REDW 7.849 1 P
IMW 9.309 1 P
FLWY 10.57 0.75 P
YPP 14.44 0.75 P
MCID 15.76 0.5 P
# 2010 08 05 16 30 34.64 43.601 -110.413333333333   1.1 0.00  7.9  2.2 0.12 30
LOHW 3.869 0.75 P
REDW 8.940 1 P
IMW 10.10 1 P
FLWY 11.07 1 P
YPP 14.95 1 P
YTP 16.02 0.75 P
MCID 16.44 1 P
YLT 17.20 0.75 P
ECR 17.71 1 P
# 2010 08 06 07 13 56.01 43.5998333333333 -110.415   3.0 0.00  8.9  2.3 0.11 31
LOHW 3.699 0.75 P
REDW 8.640 1 P
IMW 9.849 1 P
FLWY 10.85 1 P
YPP 14.75 1 P
B944 15.93 0.75 P
YTP 15.84 0.75 P
MCID 16.19 1 P
ECR 17.43 0.75 P
# 2010 08 05 19 41 11.61 43.6045 -110.453333333333   2.7 0.00  6.5  3.2 0.12 32
LOHW 3.119 0.75 P
REDW 8.350 0.5 P
IMW 9.450 1 P
FLWY 10.70 0.75 P
YPP 14.61 0.5 P
MCID 15.79 1 P
B944 15.82 0.5 P
YTP 15.80 0.5 P
# 2010 08 05 23 06 31.58 43.6081666666667 -110.416666666667   3.1 0.00  9.9  3.4 0.12 33
LOHW 3.639 0.75 P
REDW 8.690 0.75 P
IMW 9.820 1 P
FLWY 10.80 0.75 P
YPP 14.76 0.75 P
YTP 15.58 0.5 P
MCID 15.77 0.5 P
# 2010 08 07 00 22 43.19 43.6081666666667 -110.45   5.3 0.00  9.4  6.7 0.11 34
LOHW 3.220 0.75 P
REDW 8.230 1 P
IMW 9.320 0.75 P
YPP 14.22 0.75 P
B944 15.55 0.5 P
MCID 15.62 0.75 P
# 2010 08 07 00 55 43.94 43.6093333333333 -110.48   6.9 0.00  6.8  5.8 0.07 35
LOHW 2.880 0.75 P
REDW 7.930 0.75 P
IMW 9.120 0.75 P
FLWY 10.10 0.75 P
YPP 14.10 0.75 P
MCID 15.19 0.5 P
B944 15.51 0.75 P
# 2010 08 05 20 12  8.57 43.617 -110.43   1.0 0.00  5.4  2.1 0.16 36
LOHW 3.609 0.75 P
REDW 8.719 0.75 P
IMW 9.809 1 P
FLWY 11.02 0.75 P
YPP 14.78 0.75 P
B944 15.71 0.75 P
YTP 15.84 0.75 P
MCID 15.90 0.75 P
ECR 18.04 0.75 P
# 2010 08 07 19 45  3.19 43.5843333333333 -110.471666666667   4.4 0.00  7.7  6.3 0.11 37
LOHW 2.950 0.75 P
REDW 7.850 1 P
IMW 9.480 0.75 P
FLWY 10.65 0.75 P
YPP 14.57 0.5 P
MCID 15.83 0.75 P
ECR 16.55 0.75 P
YLT 17 0.5 P
# 2010 08 05 20 34 30.15 43.601 -110.42   2.9 0.00  9.3  2.6 0.18 38
LOHW 3.630 0.75 P
REDW 8.589 0.75 P
IMW 9.719 0.75 P
FLWY 10.85 1 P
YPP 14.65 0.75 P
B944 16.11 0.75 P
YTP 15.70 0.75 P
MCID 16.19 0.75 P
# 2010 08 10 16 15 38.76 43.5986666666667 -110.501666666667   6.0 0.00  5.7  7.5 0.11 39
LOHW 2.619 0.75 P
REDW 7.619 0.5 P
IMW 8.939 1 P
FLWY 10.40 0.75 P
YPP 14.30 0.75 P
MCID 15.20 0.5 P
B944 15.45 0.5 P
# 2010 08 21 18 54 26.57 43.6211666666667 -110.496666666667   4.1 0.00  5.7  7.8 0.09 40
LOHW 2.530 1 P
REDW 8.020 0.75 P
IMW 8.849 0.75 P
FLWY 9.949 0.75 P
YPP 13.94 0.75 P
MCID 15.11 0.5 P
YLT 16.34 0.25 P
# 2010 08 17 05 07 28.39 43.6081666666667 -110.488333333333   5.0 0.00  5.5  5.0 0.12 41
LOHW 2.680 0.75 P
REDW 7.860 0.75 P
IMW 8.989 1 P
FLWY 10.12 1 P
YPP 14.32 0.75 P
MCID 15.21 0.75 P
B944 15.5 0.75 P
# 2010 08 06 03 49 31.63 43.5891666666667 -110.465   5.0 0.00  8.6 10.0 0.10 42
LOHW 3.050 1 P
REDW 7.849 0.75 P
IMW 9.420 0.75 P
FLWY 10.61 0.75 P
YPP 14.56 0.75 P
MCID 15.80 0.5 P
# 2010 08 08 17 29 35.99 43.5796666666667 -110.42   5.0 0.00 12.6  3.2 0.20 43
LOHW 3.709 1 P
REDW 8.199 0.75 P
IMW 9.959 1 P
FLWY 10.69 0.75 P
YPP 15.21 0.5 P
YTP 16.19 0.75 P
MCID 16.28 0.75 P
# 2010 08 06 20 17 34.70 43.5748333333333 -110.443333333333   5.0 0.00 12.5 12.2 0.18 44
LOHW 3.470 0.75 P
REDW 7.900 0.75 P
IMW 9.710 0.75 P
FLWY 10.80 0.75 P
YPP 15.08 0.75 P
MCID 16.11 0.75 P
# 2010 08 06 23 31 23.60 43.6056666666667 -110.426666666667   3.0 0.00 11.2  8.5 0.15 45
LOHW 3.520 0.75 P
REDW 8.570 1 P
IMW 9.670 1 P
FLWY 10.66 0.75 P
YPP 14.57 0.75 P
MCID 16.08 1 P
# 2010 08 11 03 56 11.45 43.6151666666667 -110.525   7.8 0.00  2.9  3.7 0.15 46
LOHW 2.530 0.75 P
REDW 7.580 0.75 P
IMW 8.590 1 P
FLWY 9.75 0.75 P
YPP 13.67 0.5 P
MCID 14.98 0.5 P
YTP 15.91 0.5 P
# 2010 08 12 05 22 40.27 43.6081666666667 -110.433333333333   1.8 0.00  8.9  3.2 0.13 47
LOHW 3.479 0.75 P
REDW 8.689 0.75 P
IMW 9.810 0.75 P
FLWY 10.87 0.75 P
YPP 14.92 0.5 P
B944 15.67 0.5 P
YTP 15.91 0.5 P
# 2010 08 12 09 26 37.14 43.6028333333333 -110.428333333333  -0.8 0.00  5.1  2.1 0.15 48
LOHW 3.800 0.75 P
REDW 9.160 0.75 P
IMW 10.33 1 P
FLWY 11.40 1 P
YPP 15.25 1 P
B944 16.37 0.5 P
YTP 16.38 0.75 P
MCID 16.67 0.75 P
YLT 17.76 0.5 P
# 2010 08 14 15 50 14.73 43.6021666666667 -110.456666666667   3.2 0.00  7.1  4.3 0.12 49
LOHW 3.050 0.75 P
REDW 8.25 1 P
IMW 9.489 1 P
FLWY 10.47 1 P
YPP 14.37 0.75 P
MCID 15.85 1 P
B944 15.89 0.75 P
H17 15.94 0.75 P
ECR 17.03 0.75 P
# 2010 08 15 15 56 51.55 43.6181666666667 -110.44   1.0 0.00  5.1  2.1 0.12 50
LOHW 3.429 0.75 P
REDW 8.800 1 P
IMW 9.649 1 P
FLWY 10.70 1 P
YPP 14.61 1 P
B944 15.87 0.5 P
YTP 15.82 1 P
MCID 16.01 1 P
ECR 17.82 0.5 P
# 2010 08 15 15 59 15.57 43.6176666666667 -110.45   2.3 0.00  6.0  2.8 0.14 51
LOHW 3.199 0.75 P
REDW 8.569 1 P
IMW 9.369 1 P
FLWY 10.47 0.75 P
YPP 14.40 0.75 P
B944 15.78 0.5 P
MCID 15.77 1 P
YTP 15.59 0.5 P
# 2010 08 16 21 01 51.44 43.6176666666667 -110.443333333333   1.9 0.00  6.2  2.4 0.16 52
LOHW 3.320 0.75 P
REDW 8.699 1 P
IMW 9.5 1 P
FLWY 10.53 0.75 P
YPP 14.43 0.5 P
MCID 15.86 1 P
YTP 15.67 0.75 P
YLT 16.93 0.5 P
# 2010 08 16 22 52  3.39 43.5998333333333 -110.415   2.3 0.00  9.6  2.4 0.11 53
LOHW 3.75 1 P
REDW 8.690 1 P
IMW 9.960 1 P
FLWY 10.96 1 P
YPP 14.80 0.75 P
B944 16 0.5 P
YTP 15.98 1 P
MCID 16.31 1 P
# 2010 08 16 22 52 26.16 43.6105 -110.436666666667   4.2 0.00  9.5  3.4 0.15 54
LOHW 3.330 1 P
REDW 8.460 0.75 P
IMW 9.5 0.75 P
FLWY 10.87 0.5 P
YTP 15.59 0.75 P
MCID 15.54 0.5 P
# 2010 08 16 23 14  7.89 43.5961666666667 -110.518333333333   7.5 0.00  3.4  3.8 0.21 55
LOHW 2.600 0.75 P
REDW 7.430 0.75 P
IMW 8.820 1 P
FLWY 9.790 0.5 P
YPP 14.28 0.5 P
MCID 15.21 0.75 P
YTP 16.22 0.5 P
# 2010 08 16 23 14 30.96 43.601 -110.423333333333   1.2 0.00  7.8  2.8 0.16 56
LOHW 3.709 0.75 P
REDW 8.790 0.75 P
IMW 9.929 0.75 P
FLWY 11.03 0.75 P
YPP 14.91 0.75 P
B944 16.15 0.75 P
YTP 15.90 0.5 P
H17 16.52 0.75 P
MCID 16.31 1 P
# 2010 08 17 00 21 21.16 43.5998333333333 -110.428333333333   3.6 0.00  9.0  2.5 0.12 57
LOHW 3.489 1 P
REDW 8.460 1 P
IMW 9.680 1 P
FLWY 10.86 0.5 P
YPP 14.71 0.5 P
B944 15.92 1 P
YTP 15.73 0.75 P
MCID 15.96 0.5 P
# 2010 08 17 00 35 21.70 43.6081666666667 -110.433333333333   4.7 0.00  9.8  5.7 0.10 58
LOHW 3.390 1 P
REDW 8.410 1 P
IMW 9.540 1 P
FLWY 10.51 1 P
YPP 14.37 1 P
MCID 15.89 0.5 P
H17 15.71 0.5 P
ECR 17.21 0.5 P
# 2010 08 17 03 48 59.06 43.6081666666667 -110.426666666667   4.4 0.00 10.4  2.7 0.13 59
LOHW 3.459 1 P
REDW 8.489 0.75 P
IMW 9.659 1 P
FLWY 10.67 1 P
YPP 14.56 1 P
B944 15.83 0.5 P
YTP 15.70 0.75 P
MCID 15.72 0.5 P
YLT 16.22 0.75 P
YFT 17.5 0.5 P
# 2010 08 17 05 47 20.79 43.617 -110.453333333333   4.3 0.00  5.6  2.6 0.20 60
LOHW 3.149 0.75 P
REDW 8.179 1 P
IMW 9.359 1 P
FLWY 10.38 1 P
YPP 14.22 1 P
B944 15.51 0.75 P
MCID 14.87 0.5 P
H17 15.55 0.75 P
YTP 15.38 0.75 P
YLT 16.64 0.5 P
ECR 17.40 0.75 P
YFT 17.61 0.5 P
# 2010 09 04 15 39  3.37 43.6151666666667 -110.465   9.5 0.00  6.7  5.0 0.26 61
LOHW 3.200 1 P
REDW 8.190 0.75 P
IMW 9.460 1 P
FLWY 10.57 0.75 P
YPP 13.63 0.5 P
MCID 14.77 0.75 P
YTP 15.61 0.25 P
YLT 16.03 0.25 P
# 2010 08 17 09 22 17.54 43.5915 -110.413333333333   0.0 0.00  7.3  2.1 0.12 62
LOHW 4.050 0.75 P
REDW 9.040 1 P
IMW 10.43 0.75 P
FLWY 11.40 1 P
YPP 15.25 1 P
B944 16.45 0.5 P
YTP 16.39 1 P
H17 16.58 1 P
MCID 16.70 1 P
YLT 17.52 1 P
ECR 17.78 1 P
YFT 18.68 1 P
# 2010 08 17 17 40 49.70 43.5986666666667 -110.465   2.8 0.00  7.1  8.9 0.09 63
LOHW 2.959 0.75 P
REDW 8.120 0.75 P
IMW 9.5 0.75 P
FLWY 10.64 0.5 P
YPP 14.53 0.5 P
MCID 15.78 0.75 P
# 2010 08 19 00 34 45.47 43.6081666666667 -110.443333333333   3.9 0.00 10.2  9.4 0.11 64
LOHW 3.25 0.75 P
REDW 8.350 1 P
IMW 9.489 0.75 P
FLWY 10.48 0.75 P
YPP 14.40 0.5 P
MCID 15.85 0.5 P
# 2010 08 21 06 47  2.13 43.6056666666667 -110.41   0.5 0.00  9.9  5.4 0.15 65
LOHW 3.990 0.75 P
REDW 9.070 0.75 P
IMW 10.18 1 P
FLWY 11.14 0.75 P
YPP 14.98 0.5 P
H17 16.25 0.75 P
MCID 16.61 1 P
YLT 17.21 0.25 P
# 2010 08 21 13 36 19.59 43.5986666666667 -110.478333333333   5.0 0.00  6.5  6.0 0.16 66
LOHW 2.829 0.75 P
REDW 7.829 0.75 P
IMW 9.209 1 P
FLWY 10.25 0.75 P
YPP 14.23 0.75 P
MCID 15.55 0.75 P
YLT 16.86 0.5 P
# 2010 08 22 12 34 36.52 43.6056666666667 -110.433333333333   5.0 0.00 10.7  3.3 0.07 67
LOHW 3.429 0.75 P
REDW 8.369 1 P
IMW 9.600 1 P
FLWY 10.58 1 P
YPP 14.44 1 P
B944 15.67 0.75 P
YTP 15.62 0.75 P
H17 15.84 0.5 P
YLT 16.72 0.25 P
# 2010 08 19 06 22 11.79 43.5986666666667 -110.443333333333   2.6 0.00  7.2  2.7 0.14 68
LOHW 3.310 0.75 P
REDW 8.369 1 P
IMW 9.639 1 P
FLWY 10.79 0.75 P
YPP 14.58 0.75 P
B944 16.02 0.75 P
MCID 16.09 0.75 P
YTP 15.91 0.5 P
# 2010 08 23 03 41 30.16 43.601 -110.471666666667   5.0 0.00  7.7  6.6 0.16 69
LOHW 2.910 0.75 P
REDW 7.950 0.75 P
IMW 9.229 0.75 P
FLWY 10.29 0.75 P
YPP 14.18 0.75 P
MCID 15.58 1 P
YLT 16.85 0.5 P
# 2010 08 19 19 29 57.22 43.6081666666667 -110.416666666667   1.9 0.00 10.3  4.9 0.11 70
LOHW 3.729 0.75 P
REDW 8.820 1 P
IMW 9.949 1 P
FLWY 10.82 1 P
YPP 14.69 0.75 P
B944 15.88 0.5 P
MCID 16.25 0.75 P
# 2010 08 26 02 16 50.50 43.6056666666667 -110.436666666667   4.4 0.00  9.5  3.5 0.12 71
LOHW 3.359 0.75 P
REDW 8.379 1 P
IMW 9.490 1 P
FLWY 10.45 0.75 P
YPP 14.54 0.75 P
YTP 15.74 0.5 P
MCID 15.79 1 P
# 2010 08 20 12 07 48.93 43.6105 -110.465   5.0 0.00  7.6  5.0 0.13 72
LOHW 2.969 0.75 P
REDW 8.100 0.75 P
IMW 9.199 1 P
FLWY 10.20 0.75 P
YPP 14.03 0.75 P
MCID 15.55 0.75 P
B944 15.60 0.75 P
# 2010 08 21 05 56 15.28 43.6128333333333 -110.45   5.6 0.00 10.7  6.2 0.14 73
LOHW 3.219 0.75 P
REDW 8.300 0.75 P
IMW 9.389 1 P
FLWY 10.36 1 P
YPP 14.34 0.75 P
B944 15.06 0.5 P
MCID 15.29 0.5 P
H17 15.62 0.5 P
YLT 16.80 0.25 P
# 2010 08 25 17 32  2.72 43.6056666666667 -110.38  -1.4 0.00  9.5  2.4 0.11 74
LOHW 4.709 0.75 P
REDW 9.759 1 P
IMW 10.93 1 P
FLWY 11.83 1 P
YPP 15.62 0.75 P
YTP 16.29 0.75 P
B944 16.70 0.5 P
MCID 16.97 0.75 P
YLT 17.46 0.5 P
ECR 18.62 0.75 P
# 2010 08 25 21 22 51.86 43.614 -110.408333333333   1.3 0.00  8.4  2.2 0.18 75
LOHW 3.899 1 P
REDW 9.169 0.75 P
IMW 9.970 1 P
FLWY 11.06 0.75 P
YPP 14.81 0.75 P
B944 16.06 0.75 P
YTP 15.84 0.75 P
MCID 16.30 0.75 P
YLT 16.41 0.75 P
ECR 17.84 0.75 P
# 2010 08 25 21 21 14.72 43.6021666666667 -110.391666666667   4.1 0.00 13.5  3.1 0.16 76
LOHW 3.919 1 P
REDW 8.879 1 P
IMW 9.989 1 P
FLWY 10.93 1 P
YPP 14.78 1 P
YTP 15.70 0.5 P
B944 15.88 1 P
MCID 16.29 1 P
YLT 16.48 0.5 P
ECR 17.44 0.5 P
YFT 17.53 0.5 P
# 2010 08 26 00 51 56.31 43.6105 -110.433333333333   5.0 0.00  9.6  5.1 0.12 77
LOHW 3.419 1 P
REDW 8.419 1 P
IMW 9.459 1 P
FLWY 10.39 1 P
YPP 14.25 0.75 P
B944 15.5 0.75 P
H17 15.91 0.5 P
MCID 15.79 1 P
YLT 16.58 0.5 P
ECR 17.27 0.5 P
# 2010 08 27 22 02  8.36 43.6235 -110.48   4.9 0.00  7.1  8.4 0.16 78
LOHW 2.810 0.75 P
REDW 8.149 0.75 P
IMW 8.860 1 P
FLWY 9.830 1 P
YPP 14.11 0.75 P
MCID 15.16 0.75 P
# 2010 08 29 22 20 28.50 43.6176666666667 -110.39  -0.9 0.00  9.0  7.8 0.21 79
LOHW 4.509 1 P
REDW 9.540 0.75 P
IMW 10.60 1 P
FLWY 11.52 1 P
YPP 14.81 0.5 P
MCID 16.91 0.75 P
ECR 18.77 0.5 P
# 2010 09 04 14 01 13.72 43.6033333333333 -110.481666666667   7.1 0.00  6.6  5.3 0.14 80
LOHW 2.890 0.75 P
REDW 7.870 0.75 P
IMW 9.210 1 P
FLWY 10.06 0.5 P
YPP 14.15 0.75 P
MCID 15.22 0.75 P
B944 15.46 0.75 P
YLT 16.89 0.5 P
# 2010 09 02 16 01 46.56 43.601 -110.455   5.0 0.00  7.9  3.1 0.10 81
LOHW 3.119 0.75 P
REDW 8.119 0.75 P
IMW 9.390 0.75 P
FLWY 10.60 0.75 P
YPP 14.47 0.75 P
MCID 15.44 0.75 P
B944 15.79 0.75 P
YTP 15.67 0.5 P
# 2010 09 03 10 18 14.58 43.5961666666667 -110.423333333333   3.7 0.00  9.0  2.2 0.17 82
LOHW 3.529 1 P
REDW 8.459 1 P
IMW 9.809 1 P
FLWY 10.92 1 P
YPP 14.79 1 P
B944 15.97 0.75 P
YTP 15.98 1 P
H17 16.13 1 P
MCID 16.16 1 P
YLT 16.58 0.75 P
ECR 17.22 0.75 P
YFT 17.46 0.75 P
# 2010 09 04 01 10 48.19 43.6021666666667 -110.456666666667   3.9 0.00  7.5  4.5 0.15 83
LOHW 3.070 0.75 P
REDW 8.140 0.75 P
IMW 9.359 0.75 P
FLWY 10.41 0.75 P
YPP 14.40 0.75 P
MCID 15.73 0.75 P
B944 15.59 0.75 P
YLT 17.01 0.5 P
# 2010 09 07 04 06 30.86 43.5866666666667 -110.46   4.0 0.00  6.0  2.5 0.12 84
LOHW 3.119 1 P
REDW 7.959 1 P
IMW 9.489 1 P
FLWY 10.79 1 P
YPP 14.70 0.75 P
MCID 15.91 0.75 P
B944 16.17 0.75 P
YTP 16.06 0.75 P
ECR 16.76 0.5 P
YLT 16.85 0.75 P
# 2010 09 08 21 39 37.80 43.6151666666667 -110.563333333333   6.9 0.00  2.8 14.1 0.03 85
LOHW 2.139 1 P
REDW 7.299 0.75 P
IMW 8.239 1 P
YPP 13.61 0.75 P
MCID 14.40 0.75 P
# 2010 09 09 05 22  1.35 43.6188333333333 -110.453333333333   5.0 0.00 10.1 10.5 0.15 86
LOHW 3.160 0.75 P
REDW 8.310 1 P
IMW 9.119 1 P
FLWY 10.17 0.5 P
YPP 14.08 0.5 P
MCID 15.54 0.75 P
# 2010 09 13 00 54 23.31 43.5225 -110.505   2.9 0.00  7.8 11.7 0.08 87
LOHW 3.290 0.75 P
REDW 6.849 0.5 P
IMW 10.10 0.75 P
FLWY 11.77 1 P
YPP 15.69 0.75 P
MCID 16.51 0.5 P
